STARLINK-5892           
1 55954U 23037AS  26068.88259848 -.00000729  00000+0 -53282-4 0  9990
2 55954  69.9982 263.9038 0002909 272.9824  87.1002 14.98326028164505
SHIYAN-24C 03           
1 58652U 23206C   26068.89147317  .00001350  00000+0  11928-3 0  9993
2 58652  97.3969  41.7507 0002411  66.6237 293.5240 14.97896938120432
